EUTELSAT 7A             
1 28187U 04008A   25245.24060046  .00000104  00000+0  00000+0 0  9991
2 28187   5.0925  75.4461 0001261 125.3181  88.3141  1.00274610 78468
EUTELSAT 174A           
1 28924U 05052A   25245.20168484  .00000010  00000+0  00000+0 0  9997
2 28924   3.4828  80.1149 0006164  79.3721  68.7244  1.00270885 49444
EUTELSAT HOTBIRD 13B    
1 29270U 06032A   25245.23169655  .00000157  00000+0  00000+0 0  9997
2 29270   0.9111  85.4747 0004076  71.5953 301.0898  1.00275683 44421
EUTELSAT HOTBIRD 13C    
1 33459U 08065A   25245.23609166 -.00000099  00000+0  00000+0 0  9991
2 33459   2.2035  82.6337 0004096  97.2191 234.2834  1.00272484 44456
EUTELSAT 36B            
1 36101U 09065A   25245.22614142  .00000114  00000+0  00000+0 0  9995
2 36101   0.0541 336.7790 0005883 185.3452 311.3908  1.00271499 57820
EUTELSAT KA-SAT 9A      
1 37258U 10069A   25244.92405912  .00000064  00000+0  00000+0 0  9998
2 37258   0.0530 320.4579 0003754 174.3412 188.1837  1.00273500 41117
EUTELSAT 7 WEST A       
1 37816U 11051A   25245.23704500 -.00000058  00000+0  00000+0 0  9994
2 37816   0.0643 339.1718 0005901 190.9591 249.5400  1.00272323 50998
EUTELSAT 16A            
1 37836U 11057A   25244.81350315  .00000106  00000+0  00000+0 0  9999
2 37836   0.0678  11.9100 0005375 149.8835 128.2750  1.00273540  4438
